IRIDIUM 112             
1 41925U 17003J   24181.63409802  .00000131  00000+0  39614-4 0  9991
2 41925  86.3962  28.1650 0001822  85.8696 274.2708 14.34218540390457
IRIDIUM 111             
1 41926U 17003K   24181.83071978 -.00000027  00000+0 -16793-4 0  9992
2 41926  86.3960  28.1376 0001791  97.1328 263.0072 14.34217260390508
IRIDIUM 113             
1 42803U 17039A   24181.60137820  .00000017  00000+0 -83968-6 0  9998
2 42803  86.3968 261.9953 0002146  99.2836 260.8602 14.34218022368338
IRIDIUM 123             
1 42804U 17039B   24181.57308840  .00000376  00000+0  12717-3 0  9995
2 42804  86.3967 293.5164 0002124  98.0736 262.0701 14.34217876367097
IRIDIUM 120             
1 42805U 17039C   24181.59503634  .00000052  00000+0  11536-4 0  9996
2 42805  86.3956 261.8733 0002326  94.5352 265.6110 14.34218088368321
IRIDIUM 115             
1 42806U 17039D   24181.47505311  .00000688  00000+0  19845-3 0  9993
2 42806  86.4494 261.9499 0002113 105.8093 254.3341 14.43288144370742
IRIDIUM 118             
1 42807U 17039E   24181.81410572  .00000130  00000+0  39239-4 0  9998
2 42807  86.3966 293.4168 0002094  92.1143 268.0292 14.34218940367134
IRIDIUM 117             
1 42808U 17039F   24181.55406094  .00000106  00000+0  30649-4 0  9993
2 42808  86.3967 293.4899 0002238 100.7594 259.3854 14.34217803367115
